start=new Date('2021-08-29T00:00:00.000Z').valueOf();
sats=[{"NORAD_CAT_ID":"47142","LAUNCH_DATE":"2020-11-25","ARG_OF_PERICENTER":"350.8971","MEAN_MOTION":"15.89985797","EPOCH":"2021-08-28T00:36:58.983552","APOAPSIS":"306.125","TIME_SYSTEM":"UTC","EPHEMERIS_TYPE":"0","DECAY_DATE":null,"BSTAR":"0.00060112000000","ECCENTRICITY":"0.00056890","MEAN_MOTION_DDOT":"0.0000230100000","ELEMENT_SET_NO":"999","MEAN_MOTION_DOT":"0.00181136","PERIOD":"90.567","RCS_SIZE":"LARGE","FILE":"3104340","TLE_LINE2":"2 47142  53.0554 141.7054 0005689 350.8971   9.1951 15.89985797 42835","MEAN_ANOMALY":"9.1951","REF_FRAME":"TEME","OBJECT_ID":"2020-088W","MEAN_ELEMENT_THEORY":"SGP4","PERIAPSIS":"298.524","SITE":"AFETR","TLE_LINE1":"1 47142U 20088W   21240.02568268  .00181136  23010-4  60112-3 0  9995","INCLINATION":"53.0554","OBJECT_TYPE":"PAYLOAD","GP_ID":"183610225","CLASSIFICATION_TYPE":"U","REV_AT_EPOCH":"4283","OBJECT_NAME":"STARLINK-1855","CENTER_NAME":"EARTH","COUNTRY_CODE":"US","SEMIMAJOR_AXIS":"6680.460","RA_OF_ASC_NODE":"141.7054"},{"SITE":"AFETR","TLE_LINE1":"1 47143U 20088X   21240.25589145  .00002400  00000-0  17992-3 0  9992","PERIAPSIS":"545.875","INCLINATION":"53.0534","OBJECT_TYPE":"PAYLOAD","REF_FRAME":"TEME","OBJECT_ID":"2020-088X","MEAN_ELEMENT_THEORY":"SGP4","COUNTRY_CODE":"US","SEMIMAJOR_AXIS":"6925.320","RA_OF_ASC_NODE":"158.6506","GP_ID":"183610975","CLASSIFICATION_TYPE":"U","REV_AT_EPOCH":"4261","CENTER_NAME":"EARTH","OBJECT_NAME":"STARLINK-1856","EPOCH":"2021-08-28T06:08:29.021280","MEAN_MOTION":"15.06409449","DECAY_DATE":null,"EPHEMERIS_TYPE":"0","APOAPSIS":"548.494","TIME_SYSTEM":"UTC","BSTAR":"0.00017992000000","ECCENTRICITY":"0.00018910","MEAN_MOTION_DDOT":"0.0000000000000","NORAD_CAT_ID":"47143","LAUNCH_DATE":"2020-11-25","ARG_OF_PERICENTER":"64.7185","TLE_LINE2":"2 47143  53.0534 158.6506 0001891  64.7185 295.3999 15.06409449 42613","MEAN_ANOMALY":"295.3999","ELEMENT_SET_NO":"999","MEAN_MOTION_DOT":"0.00002400","RCS_SIZE":"LARGE","PERIOD":"95.592","FILE":"3104340"},{"NORAD_CAT_ID":"47144","ARG_OF_PERICENTER":"69.9266","LAUNCH_DATE":"2020-11-25","DECAY_DATE":null,"APOAPSIS":"548.501","TIME_SYSTEM":"UTC","EPHEMERIS_TYPE":"0","EPOCH":"2021-08-28T21:43:58.346688","MEAN_MOTION":"15.06401826","MEAN_MOTION_DDOT":"0.0000000000000","ECCENTRICITY":"0.00018670","BSTAR":"0.00010402000000","MEAN_MOTION_DOT":"0.00001268","ELEMENT_SET_NO":"999","FILE":"3104555","RCS_SIZE":"LARGE","PERIOD":"95.592","TLE_LINE2":"2 47144  53.0553 145.7369 0001867  69.9266 290.1924 15.06401826 42857","MEAN_ANOMALY":"290.1924","REF_FRAME":"TEME","MEAN_ELEMENT_THEORY":"SGP4","OBJECT_ID":"2020-088Y","INCLINATION":"53.0553","TLE_LINE1":"1 47144U 20088Y   21240.90553642  .00001268  00000-0  10402-3 0  9998","SITE":"AFETR","PERIAPSIS":"545.915","OBJECT_TYPE":"PAYLOAD","GP_ID":"183639327","CLASSIFICATION_TYPE":"U","CENTER_NAME":"EARTH","REV_AT_EPOCH":"4285","OBJECT_NAME":"STARLINK-1857","SEMIMAJOR_AXIS":"6925.343","COUNTRY_CODE":"US","RA_OF_ASC_NODE":"145.7369"},{"INCLINATION":"53.0535","PERIAPSIS":"542.524","TLE_LINE1":"1 47145U 20088Z   21240.89813951  .00002449  00000-0  18325-3 0  9993","SITE":"AFETR","OBJECT_TYPE":"PAYLOAD","REF_FRAME":"TEME","MEAN_ELEMENT_THEORY":"SGP4","OBJECT_ID":"2020-088Z","SEMIMAJOR_AXIS":"6925.319","COUNTRY_CODE":"US","RA_OF_ASC_NODE":"145.7706","GP_ID":"183637580","CLASSIFICATION_TYPE":"U","OBJECT_NAME":"STARLINK-1858","REV_AT_EPOCH":"4285","CENTER_NAME":"EARTH","APOAPSIS":"551.844","EPHEMERIS_TYPE":"0","TIME_SYSTEM":"UTC","DECAY_DATE":null,"MEAN_MOTION":"15.06409621","EPOCH":"2021-08-28T21:33:19.253664","ECCENTRICITY":"0.00067290","MEAN_MOTION_DDOT":"0.0000000000000","BSTAR":"0.00018325000000","NORAD_CAT_ID":"47145","ARG_OF_PERICENTER":"340.6998","LAUNCH_DATE":"2020-11-25","TLE_LINE2":"2 47145  53.0535 145.7706 0006729 340.6998  19.3736 15.06409621 42859","MEAN_ANOMALY":"19.3736","MEAN_MOTION_DOT":"0.00002449","ELEMENT_SET_NO":"999","FILE":"3104555","PERIOD":"95.592","RCS_SIZE":"LARGE"},{"COUNTRY_CODE":"US","SEMIMAJOR_AXIS":"6925.319","RA_OF_ASC_NODE":"177.4278","GP_ID":"183638330","CLASSIFICATION_TYPE":"U","OBJECT_NAME":"STARLINK-1859","REV_AT_EPOCH":"4237","CENTER_NAME":"EARTH","INCLINATION":"53.0554","SITE":"AFETR","TLE_LINE1":"1 47146U 20088AA  21240.52954586  .00001398  00000-0  11268-3 0  9995","PERIAPSIS":"545.975","OBJECT_TYPE":"PAYLOAD","REF_FRAME":"TEME","MEAN_ELEMENT_THEORY":"SGP4","OBJECT_ID":"2020-088AA","TLE_LINE2":"2 47146  53.0554 177.4278 0001745  67.8926 292.2248 15.06409667 42376","MEAN_ANOMALY":"292.2248","MEAN_MOTION_DOT":"0.00001398","ELEMENT_SET_NO":"999","FILE":"3104555","RCS_SIZE":"LARGE","PERIOD":"95.592","DECAY_DATE":null,"TIME_SYSTEM":"UTC","APOAPSIS":"548.392","EPHEMERIS_TYPE":"0","EPOCH":"2021-08-28T12:42:32.762304","MEAN_MOTION":"15.06409667","ECCENTRICITY":"0.00017450","MEAN_MOTION_DDOT":"0.0000000000000","BSTAR":"0.00011268000000","NORAD_CAT_ID":"47146","ARG_OF_PERICENTER":"67.8926","LAUNCH_DATE":"2020-11-25"},{"OBJECT_NAME":"STARLINK-1860","REV_AT_EPOCH":"4256","CENTER_NAME":"EARTH","GP_ID":"183639078","CLASSIFICATION_TYPE":"U","RA_OF_ASC_NODE":"166.2394","SEMIMAJOR_AXIS":"6925.307","COUNTRY_CODE":"US","MEAN_ELEMENT_THEORY":"SGP4","OBJECT_ID":"2020-088AB","REF_FRAME":"TEME","OBJECT_TYPE":"PAYLOAD","INCLINATION":"53.0561","TLE_LINE1":"1 47147U 20088AB  21240.79679070  .00002348  00000-0  17641-3 0  9994","SITE":"AFETR","PERIAPSIS":"545.833","FILE":"3104555","PERIOD":"95.591","RCS_SIZE":"LARGE","MEAN_MOTION_DOT":"0.00002348","ELEMENT_SET_NO":"999","MEAN_ANOMALY":"301.8889","TLE_LINE2":"2 47147  53.0561 166.2394 0001934  58.2288 301.8889 15.06413515 42561","ARG_OF_PERICENTER":"58.2288","LAUNCH_DATE":"2020-11-25","NORAD_CAT_ID":"47147","ECCENTRICITY":"0.00019340","MEAN_MOTION_DDOT":"0.0000000000000","BSTAR":"0.00017641000000","DECAY_DATE":null,"TIME_SYSTEM":"UTC","APOAPSIS":"548.511","EPHEMERIS_TYPE":"0","EPOCH":"2021-08-28T19:07:22.716480","MEAN_MOTION":"15.06413515"},{"BSTAR":"0.00005668700000","ECCENTRICITY":"0.00017240","MEAN_MOTION_DDOT":"0.0000000000000","MEAN_MOTION":"15.06403808","EPOCH":"2021-08-28T12:09:24.592032","APOAPSIS":"548.396","EPHEMERIS_TYPE":"0","TIME_SYSTEM":"UTC","DECAY_DATE":null,"LAUNCH_DATE":"2020-11-25","ARG_OF_PERICENTER":"67.4998","NORAD_CAT_ID":"47148","MEAN_ANOMALY":"292.6174","TLE_LINE2":"2 47148  53.0561 157.5235 0001724  67.4998 292.6174 15.06403808 42654","PERIOD":"95.592","RCS_SIZE":"LARGE","FILE":"3104555","ELEMENT_SET_NO":"999","MEAN_MOTION_DOT":"0.00000563","OBJECT_TYPE":"PAYLOAD","PERIAPSIS":"546.008","SITE":"AFETR","TLE_LINE1":"1 47148U 20088AC  21240.50653463  .00000563  00000-0  56687-4 0  9993","INCLINATION":"53.0561","OBJECT_ID":"2020-088AC","MEAN_ELEMENT_THEORY":"SGP4","REF_FRAME":"TEME","RA_OF_ASC_NODE":"157.5235","COUNTRY_CODE":"US","SEMIMAJOR_AXIS":"6925.337","CENTER_NAME":"EARTH","REV_AT_EPOCH":"4265","OBJECT_NAME":"STARLINK-1861","GP_ID":"183638828","CLASSIFICATION_TYPE":"U"},{"REF_FRAME":"TEME","MEAN_ELEMENT_THEORY":"SGP4","OBJECT_ID":"2020-088AD","INCLINATION":"53.0563","SITE":"AFETR","TLE_LINE1":"1 47149U 20088AD  21240.53510085  .00000806  00000-0  73020-4 0  9999","PERIAPSIS":"545.906","OBJECT_TYPE":"PAYLOAD","GP_ID":"183638080","CLASSIFICATION_TYPE":"U","REV_AT_EPOCH":"4325","OBJECT_NAME":"STARLINK-1862","CENTER_NAME":"EARTH","SEMIMAJOR_AXIS":"6925.331","COUNTRY_CODE":"US","RA_OF_ASC_NODE":"167.4124","NORAD_CAT_ID":"47149","ARG_OF_PERICENTER":"67.5943","LAUNCH_DATE":"2020-11-25","DECAY_DATE":null,"EPHEMERIS_TYPE":"0","APOAPSIS":"548.487","TIME_SYSTEM":"UTC","EPOCH":"2021-08-28T12:50:32.713440","MEAN_MOTION":"15.06405578","MEAN_MOTION_DDOT":"0.0000000000000","ECCENTRICITY":"0.00018640","BSTAR":"0.00007302000000","MEAN_MOTION_DOT":"0.00000806","ELEMENT_SET_NO":"999","FILE":"3104555","PERIOD":"95.592","RCS_SIZE":"LARGE","TLE_LINE2":"2 47149  53.0563 167.4124 0001864  67.5943 292.5243 15.06405578 43259","MEAN_ANOMALY":"292.5243"},{"OBJECT_NAME":"STARLINK-1863","REV_AT_EPOCH":"4265","CENTER_NAME":"EARTH","GP_ID":"183637831","CLASSIFICATION_TYPE":"U","RA_OF_ASC_NODE":"157.7419","SEMIMAJOR_AXIS":"6925.333","COUNTRY_CODE":"US","OBJECT_ID":"2020-088AE","MEAN_ELEMENT_THEORY":"SGP4","REF_FRAME":"TEME","OBJECT_TYPE":"PAYLOAD","TLE_LINE1":"1 47150U 20088AE  21240.46230708  .00000620  00000-0  60515-4 0  9993","SITE":"AFETR","PERIAPSIS":"545.883","INCLINATION":"53.0558","PERIOD":"95.592","RCS_SIZE":"LARGE","FILE":"3104555","ELEMENT_SET_NO":"999","MEAN_MOTION_DOT":"0.00000620","MEAN_ANOMALY":"290.2230","TLE_LINE2":"2 47150  53.0558 157.7419 0001899  69.8964 290.2230 15.06404925 42659","LAUNCH_DATE":"2020-11-25","ARG_OF_PERICENTER":"69.8964","NORAD_CAT_ID":"47150","BSTAR":"0.00006051500000","ECCENTRICITY":"0.00018990","MEAN_MOTION_DDOT":"0.0000000000000","EPOCH":"2021-08-28T11:05:43.331712","MEAN_MOTION":"15.06404925","DECAY_DATE":null,"EPHEMERIS_TYPE":"0","APOAPSIS":"548.514","TIME_SYSTEM":"UTC"},{"SITE":"AFETR","TLE_LINE1":"1 47151U 20088AF  21240.52772587  .00001025  00000-0  87668-4 0  9995","PERIAPSIS":"545.963","INCLINATION":"53.0549","OBJECT_TYPE":"PAYLOAD","REF_FRAME":"TEME","OBJECT_ID":"2020-088AF","MEAN_ELEMENT_THEORY":"SGP4","SEMIMAJOR_AXIS":"6925.328","COUNTRY_CODE":"US","RA_OF_ASC_NODE":"167.4363","GP_ID":"183638579","CLASSIFICATION_TYPE":"U","REV_AT_EPOCH":"4251","OBJECT_NAME":"STARLINK-1864","CENTER_NAME":"EARTH","EPOCH":"2021-08-28T12:39:55.515168","MEAN_MOTION":"15.06406690","DECAY_DATE":null,"APOAPSIS":"548.423","EPHEMERIS_TYPE":"0","TIME_SYSTEM":"UTC","BSTAR":"0.00008766800000","ECCENTRICITY":"0.00017760","MEAN_MOTION_DDOT":"0.0000000000000","NORAD_CAT_ID":"47151","LAUNCH_DATE":"2020-11-25","ARG_OF_PERICENTER":"69.6994","TLE_LINE2":"2 47151  53.0549 167.4363 0001776  69.6994 290.4186 15.06406690 42519","MEAN_ANOMALY":"290.4186","ELEMENT_SET_NO":"999","MEAN_MOTION_DOT":"0.00001025","PERIOD":"95.592","RCS_SIZE":"LARGE","FILE":"3104555"}];
